AMC-1 (GE-1)            
1 24315U 96054A   22044.57546123  .00000066  00000+0  00000+0 0  9994
2 24315   5.3272  74.1958 0003600 244.8087 260.8153  1.00271683 30435
AMC-3 (GE-3)            
1 24936U 97050A   22044.45745439 -.00000259  00000+0  00000+0 0  9993
2 24936   4.2419  80.6485 0003329 248.8670 266.6119  1.00271340 36546
ASTRA 1G                
1 25071U 97076A   22044.21986240  .00000117  00000+0  00000+0 0  9995
2 25071   5.9612  69.2304 0004318 254.2242 278.3179  1.00275597 88617
ASTRA 2A                
1 25462U 98050A   22044.50870362  .00000150  00000+0  00000+0 0  9998
2 25462   3.0951  86.9105 0002546 231.5395  36.1287  1.00272517 30446
AMC-4 (GE-4)            
1 25954U 99060A   22044.57231637  .00000090  00000+0  00000+0 0  9992
2 25954   1.2084  93.3286 0003306 232.9252 248.4260  1.00272200 27661
NSS-11 (AAP-1)          
1 26554U 00059A   22044.10761258  .00000028  00000+0  00000+0 0  9996
2 26554   0.0670 283.4301 0003276  58.4996  15.9079  1.00272457 25395
AMC-6 (GE-6)            
1 26580U 00067A   22044.61970927  .00000107  00000+0  00000+0 0  9993
2 26580   0.0606 286.8476 0002750  44.8134 256.0373  1.00273849 78032
ASTRA 2D                
1 26638U 00081A   22044.22073458  .00000131  00000+0  00000+0 0  9990
2 26638   7.0310  61.1340 0002038 276.0940 269.1689  1.00275368 37018
AMC-8 (GE-8)            
1 26639U 00081B   22044.57231632  .00000090  00000+0  00000+0 0  9993
2 26639   2.1366  89.9422 0002705 242.2068 242.4299  1.00272175 77447
ASTRA 2C                
1 26853U 01025A   22044.45745507 -.00000258  00000+0  00000+0 0  9995
2 26853   4.2676  80.4496 0003072 236.6052 278.5882  1.00274755 29156
ASTRA 3A                
1 27400U 02015B   22044.52790653 -.00000201  00000+0  00000+0 0  9992
2 27400   7.1382  59.9833 0001883 248.2085 298.5852  1.00271496 72831
NSS-7                   
1 27414U 02019A   22044.42732903 -.00000157  00000+0  00000+0 0  9994
2 27414   5.6111  72.3220 0002583 262.6477 302.2808  1.00271765 72676
NSS-6                   
1 27603U 02057A   22044.59356632  .00000110  00000+0  00000+0 0  9993
2 27603   1.2984  93.1156 0003539 231.4307 223.1546  1.00272190 70157
AMC-11 (GE-11)          
1 28252U 04017A   22044.57568101  .00000073  00000+0  00000+0 0  9994
2 28252   0.0589 289.3503 0003086  30.9648 259.4898  1.00270601 64990
AMC-15                  
1 28446U 04041A   22044.59743672 -.00000085  00000+0  00000+0 0  9990
2 28446   0.0408 300.1559 0002997  30.1720 283.2768  1.00272509 63439
NSS-10 (AMC-12)         
1 28526U 05003A   22044.49562090 -.00000249  00000+0  00000+0 0  9992
2 28526   2.4759  88.6987 0003314 223.9850 331.7676  1.00271128 37261
ASTRA 1KR               
1 29055U 06012A   22044.29164299  .00000123  00000+0  00000+0 0  9998
2 29055   0.0823 275.2489 0004334   3.8060 348.4217  1.00270468 57856
AMC-18                  
1 29644U 06054B   22044.53095079 -.00000212  00000+0  00000+0 0  9994
2 29644   0.0538 286.0470 0002671  38.1316 287.4857  1.00272836 55660
ASTRA 1L                
1 31306U 07016A   22044.29164299  .00000123  00000+0  00000+0 0  9995
2 31306   0.0927 292.9050 0005360  11.2939 323.2735  1.00271226 54149
ASTRA 4A (SIRIUS 4)     
1 32299U 07057A   22044.21698420  .00000036  00000+0  00000+0 0  9995
2 32299   0.0404 288.6520 0003114  26.9234 270.5498  1.00272187 35787
AMC-21                  
1 33275U 08038B   22044.58140949  .00000040  00000+0  00000+0 0  9993
2 33275   0.0258 328.2884 0002874   0.1133 259.5653  1.00271598 49608
ASTRA 1M                
1 33436U 08057A   22044.21986240  .00000123  00000+0  00000+0 0  9997
2 33436   0.0182 110.6603 0000798 221.9468 268.8968  1.00273290 29838
CIEL-2                  
1 33453U 08063A   22044.57797236  .00000061  00000+0  00000+0 0  9998
2 33453   0.0541 270.2570 0003232  58.6881 253.8318  1.00271718 48244
NSS-9                   
1 33749U 09008A   22044.58665608  .00000074  00000+0  00000+0 0  9998
2 33749   0.0656 285.4057 0002417  27.5964 224.8238  1.00270735 47648
SES-7 (PROTOSTAR 2)     
1 34941U 09027A   22044.52466455 -.00000342  00000+0  00000+0 0  9996
2 34941   0.0164  79.9814 0002227 218.4701 142.1836  1.00271002 46725
NSS-12                  
1 36032U 09058A   22044.51446002  .00000075  00000+0  00000+0 0  9990
2 36032   0.0128 292.2177 0002658  32.2462  61.2608  1.00270813 45023
SES-1                   
1 36516U 10016A   22044.51704535 -.00000111  00000+0  00000+0 0  9993
2 36516   0.0663 283.6443 0003003  46.5121 258.4747  1.00272037 43155
ASTRA 3B                
1 36581U 10021A   22044.29225351  .00000140  00000+0  00000+0 0  9991
2 36581   0.0516  59.2014 0004493 253.7802 319.0126  1.00269516 42755
SES-3                   
1 37748U 11035A   22044.59851002 -.00000098  00000+0  00000+0 0  9997
2 37748   0.0164 317.2175 0002779   7.3078 291.5435  1.00270024 38712
ASTRA 1N                
1 37775U 11041A   22044.29164299  .00000123  00000+0  00000+0 0  9994
2 37775   0.0457  27.8137 0004453 336.0080 263.6246  1.00272724 38501
SES-2                   
1 37809U 11049A   22044.52796694 -.00000192  00000+0  00000+0 0  9993
2 37809   0.0666 284.2596 0003583  47.0587 275.2594  1.00272094 38070
QUETZSAT 1              
1 37826U 11054A   22044.53491872 -.00000238  00000+0  00000+0 0  9990
2 37826   0.0129  66.6557 0003095 253.7499 298.6778  1.00271266 34000
SES-4                   
1 38087U 12007A   22044.35519958 -.00000165  00000+0  00000+0 0  9994
2 38087   0.0118  20.7147 0002231 300.4910 288.0054  1.00271665 36345
SES-5                   
1 38652U 12036A   22044.21698420  .00000037  00000+0  00000+0 0  9998
2 38652   0.0679 285.6611 0002244  30.7873 269.8434  1.00271620 28596
ASTRA 2F                
1 38778U 12051A   22044.50870362  .00000153  00000+0  00000+0 0  9992
2 38778   0.0962 254.2013 0003275  18.9853  81.6402  1.00269313 25238
SES-6                   
1 39172U 13026A   22044.49501036 -.00000258  00000+0  00000+0 0  9998
2 39172   0.0679 286.0938 0002548  36.4758 318.6249  1.00272129 31836
O3B FM5                 
1 39188U 13031A   22044.32047959 -.00000022  00000+0  00000+0 0  9991
2 39188   0.0319   5.7716 0002746 330.8243  23.3864  5.00116268157752
O3B FM4                 
1 39189U 13031B   22044.18628229 -.00000022  00000+0  00000+0 0  9991
2 39189   0.0590  13.5636 0002835 268.2021  78.1973  5.00116355157766
O3B FM2                 
1 39190U 13031C   22044.43867863 -.00000022  00000+0  00000+0 0  9990
2 39190   0.0639  15.1018 0005182 233.9270 110.9106  5.00116016157821
O3B PFM                 
1 39191U 13031D   22043.86584742 -.00000022  00000+0  00000+0 0  9999
2 39191   0.0408   7.3997 0002581 318.6168  33.9618  5.00115860157594
ASTRA 2E                
1 39285U 13056A   22044.50879084  .00000153  00000+0  00000+0 0  9992
2 39285   0.0593 357.7210 0002881 335.9855  21.4128  1.00273575 30548
SES-8                   
1 39460U 13071A   22044.52204801 -.00000267  00000+0  00000+0 0  9992
2 39460   0.0472 263.4809 0001484  89.3346  73.6423  1.00273106 28532
ASTRA 5B                
1 39617U 14011B   22044.50940137  .00000158  00000+0  00000+0 0  9996
2 39617   0.0561 304.4016 0004250   3.8942  50.0629  1.00272293 28777
O3B FM3                 
1 40079U 14038A   22044.37366674 -.00000022  00000+0  00000+0 0  9993
2 40079   0.0513  12.9173 0004303 340.5550   6.5169  5.00115434133755
O3B FM7                 
1 40080U 14038B   22044.31988576 -.00000022  00000+0  00000+0 0  9990
2 40080   0.0538  17.0507 0002041 261.6022  81.3188  5.00116037138594
O3B FM6                 
1 40081U 14038C   22044.34614370 -.00000022  00000+0  00000+0 0  9992
2 40081   0.0522  12.2501 0002632 312.2841  35.4431  5.00115550138542
O3B FM8                 
1 40082U 14038D   22043.60057288 -.00000023  00000+0  00000+0 0  9991
2 40082   0.0553  11.7855 0002786 311.0459  37.1442  5.00115545138629
O3B FM10                
1 40348U 14083A   22044.42616176 -.00000022  00000+0  00000+0 0  9993
2 40348   0.0455   4.9566 0002634 319.0810  35.9395  5.00115984130609
O3B FM11                
1 40349U 14083B   22044.43954432 -.00000022  00000+0  00000+0 0  9995
2 40349   0.0433  10.3803 0001944 307.4164  42.1832  5.00115295130620
O3B FM12                
1 40350U 14083C   22044.26681375 -.00000022  00000+0  00000+0 0  9991
2 40350   0.0442  10.1180 0002475 316.3759  33.4853  5.00115235130638
O3B FM9                 
1 40351U 14083D   22044.49363213 -.00000022  00000+0  00000+0 0  9995
2 40351   0.0425  11.5808 0002556 312.4026  35.9942  5.00115076130781
ASTRA 2G                
1 40364U 14089A   22044.50870362  .00000153  00000+0  00000+0 0  9999
2 40364   0.0325   7.8644 0003320   7.4046 339.5314  1.00273510 26079
SES-9                   
1 41380U 16013A   22044.52475177 -.00000342  00000+0  00000+0 0  9995
2 41380   0.0571 276.2843 0001257 102.2700  62.1663  1.00270221 21541
SES-10                  
1 42432U 17017A   22044.54204065 -.00000269  00000+0  00000+0 0  9995
2 42432   0.0165  75.3655 0002896 244.4805 311.9210  1.00272351 17851
SES-15                  
1 42709U 17026A   22044.57682618  .00000063  00000+0  00000+0 0  9990
2 42709   0.0210  19.9005 0000719 289.0401 273.1161  1.00270324 18258
SES-11 (ECHOSTAR 105)   
1 42967U 17063A   22044.59743689 -.00000086  00000+0  00000+0 0  9991
2 42967   0.0152  95.5392 0002877 218.7857 299.3772  1.00271759 15831
SES-14                  
1 43175U 18012B   22044.42183428 -.00000275  00000+0  00000+0 0  9999
2 43175   0.0096  59.2362 0001153 243.6390 304.8903  1.00271130 15166
O3B FM15                
1 43231U 18024A   22044.35996344 -.00000022  00000+0  00000+0 0  9996
2 43231   0.0471   1.0422 0002687 325.4139  33.5217  5.00115916 71733
O3B FM16                
1 43232U 18024B   22044.41329872 -.00000022  00000+0  00000+0 0  9990
2 43232   0.0483 356.2116 0002659 329.7969  33.9692  5.00115812 71667
O3B FM14                
1 43233U 18024C   22044.25295812 -.00000022  00000+0  00000+0 0  9999
2 43233   0.0494 354.9947 0002557 327.3249  37.6573  5.00116299 71668
O3B FM13                
1 43234U 18024D   22044.50606272 -.00000022  00000+0  00000+0 0  9994
2 43234   0.0262  20.8334 0002387 325.2270  13.9278  5.00115611 71782
SES-12                  
1 43488U 18049A   22044.52204801 -.00000266  00000+0  00000+0 0  9996
2 43488   0.0142  63.3416 0002562 224.4321 138.6658  1.00271042 13527
O3B FM20                
1 44112U 19020A   22044.27956577 -.00000022  00000+0  00000+0 0  9997
2 44112   0.0462   5.1088 0002339 323.6803  31.1918  5.00115380 52283
O3B FM19                
1 44113U 19020B   22044.50605550 -.00000022  00000+0  00000+0 0  9996
2 44113   0.0200 342.3629 0002591 318.4847  59.1218  5.00114778 52150
O3B FM17                
1 44114U 19020C   22043.98711931 -.00000022  00000+0  00000+0 0  9999
2 44114   0.0653   0.1120 0002680 327.6796  32.1869  5.00115408 52224
O3B FM18                
1 44115U 19020D   22044.33353029 -.00000022  00000+0  00000+0 0  9990
2 44115   0.0458   5.2049 0002811 320.0665  34.7051  5.00115720 52365
SES-17                  
1 49332U 21095A   22042.81000000 -.00000090  00000+0  00000+0 0  9995
2 49332   2.0760 255.7720 3788201 192.0370 120.7530  1.16738678  1913
